{"type": "FeatureCollection", "features": [ {"type": "Feature", "properties": {"norad_id": 66393, "name": "STARLINK-35652", "group": "last-30-days", "lat": -50.67743759547697, "lon": -114.98742420481344, "alt_km": 424.6010819676967, "timestamp": "2025-12-02T19:35:49.342116+00:00", "meta": {"OBJECT_NAME": "STARLINK-35652", "OBJECT_ID": "2025-257P", "EPOCH": "2025-12-02T12:00:05.998752", "MEAN_MOTION": 15.49313894, "ECCENTRICITY": 0.0001554, "INCLINATION": 53.1582, "RA_OF_ASC_NODE": 312.7752, "ARG_OF_PERICENTER": 91.0046, "MEAN_ANOMALY": 227.6827, "EPHEMERIS_TYPE": 0, "CLASSIFICATION_TYPE": "U", "NORAD_CAT_ID": 66393, "ELEMENT_SET_NO": 999, "REV_AT_EPOCH": 485, "BSTAR": -0.00075922, "MEAN_MOTION_DOT": -0.00042453, "MEAN_MOTION_DDOT": 0}, "tle": {"line1": "1 66393U 25257P   25336.50006943 -.00042453  00000+0 -75922-3 0  9991", "line2": "2 66393  53.1582 312.7752 0001554  91.0046 227.6827 15.49313894  4853"}}, "geometry": {"type": "Point", "coordinates": [-114.98742420481344, -50.67743759547697]}}, {"type": "Feature", "properties": {"norad_id": 66394, "name": "STARLINK-35672", "group": "last-30-days", "lat": -49.3103430530362, "lon": -109.43921658899428, "alt_km": 424.45962336862704, "timestamp": "2025-12-02T19:35:49.342129+00:00", "meta": {"OBJECT_NAME": "STARLINK-35672", "OBJECT_ID": "2025-257Q", "EPOCH": "2025-12-02T12:00:05.998752", "MEAN_MOTION": 15.49314486, "ECCENTRICITY": 0.0001489, "INCLINATION": 53.1583, "RA_OF_ASC_NODE": 312.7667, "ARG_OF_PERICENTER": 84.4575, "MEAN_ANOMALY": 238.0623, "EPHEMERIS_TYPE": 0, "CLASSIFICATION_TYPE": "U", "NORAD_CAT_ID": 66394, "ELEMENT_SET_NO": 999, "REV_AT_EPOCH": 485, "BSTAR": -0.0007466, "MEAN_MOTION_DOT": -0.00041759, "MEAN_MOTION_DDOT": 0}, "tle": {"line1": "1 66394U 25257Q   25336.50006943 -.00041759  00000+0 -74660-3 0  9998", "line2": "2 66394  53.1583 312.7667 0001489  84.4575 238.0623 15.49314486  4858"}}, "geometry": {"type": "Point", "coordinates": [-109.43921658899428, -49.3103430530362]}}, {"type": "Feature", "properties": {"norad_id": 66395, "name": "STARLINK-35681", "group": "last-30-days", "lat": -48.52953620148622, "lon": -106.78165289680327, "alt_km": 424.42756766944694, "timestamp": "2025-12-02T19:35:49.342139+00:00", "meta": {"OBJECT_NAME": "STARLINK-35681", "OBJECT_ID": "2025-257R", "EPOCH": "2025-12-02T12:00:05.998752", "MEAN_MOTION": 15.49305501, "ECCENTRICITY": 0.000141, "INCLINATION": 53.1583, "RA_OF_ASC_NODE": 312.7634, "ARG_OF_PERICENTER": 91.2828, "MEAN_ANOMALY": 233.161, "EPHEMERIS_TYPE": 0, "CLASSIFICATION_TYPE": "U", "NORAD_CAT_ID": 66395, "ELEMENT_SET_NO": 999, "REV_AT_EPOCH": 469, "BSTAR": -0.00060915, "MEAN_MOTION_DOT": -0.00034175, "MEAN_MOTION_DDOT": 0}, "tle": {"line1": "1 66395U 25257R   25336.50006943 -.00034175  00000+0 -60915-3 0  9991", "line2": "2 66395  53.1583 312.7634 0001410  91.2828 233.1610 15.49305501  4696"}}, "geometry": {"type": "Point", "coordinates": [-106.78165289680327, -48.52953620148622]}}, {"type": "Feature", "properties": {"norad_id": 66396, "name": "STARLINK-35669", "group": "last-30-days", "lat": -47.69228040272487, "lon": -104.21786309674978, "alt_km": 424.3345653850074, "timestamp": "2025-12-02T19:35:49.342149+00:00", "meta": {"OBJECT_NAME": "STARLINK-35669", "OBJECT_ID": "2025-257S", "EPOCH": "2025-12-02T12:00:05.998752", "MEAN_MOTION": 15.49301874, "ECCENTRICITY": 0.0001393, "INCLINATION": 53.1583, "RA_OF_ASC_NODE": 312.7588, "ARG_OF_PERICENTER": 86.8025, "MEAN_ANOMALY": 239.5533, "EPHEMERIS_TYPE": 0, "CLASSIFICATION_TYPE": "U", "NORAD_CAT_ID": 66396, "ELEMENT_SET_NO": 999, "REV_AT_EPOCH": 485, "BSTAR": -0.0003452, "MEAN_MOTION_DOT": -0.00019594, "MEAN_MOTION_DDOT": 0}, "tle": {"line1": "1 66396U 25257S   25336.50006943 -.00019594  00000+0 -34520-3 0  9993", "line2": "2 66396  53.1583 312.7588 0001393  86.8025 239.5533 15.49301874  4855"}}, "geometry": {"type": "Point", "coordinates": [-104.21786309674978, -47.69228040272487]}}, {"type": "Feature", "properties": {"norad_id": 66397, "name": "STARLINK-35510", "group": "last-30-days", "lat": -46.795072811549396, "lon": -101.72511830834337, "alt_km": 424.18402905241965, "timestamp": "2025-12-02T19:35:49.342160+00:00", "meta": {"OBJECT_NAME": "STARLINK-35510", "OBJECT_ID": "2025-257T", "EPOCH": "2025-12-02T12:00:05.998752", "MEAN_MOTION": 15.49306597, "ECCENTRICITY": 0.0001273, "INCLINATION": 53.1582, "RA_OF_ASC_NODE": 312.7553, "ARG_OF_PERICENTER": 80.4376, "MEAN_ANOMALY": 247.8398, "EPHEMERIS_TYPE": 0, "CLASSIFICATION_TYPE": "U", "NORAD_CAT_ID": 66397, "ELEMENT_SET_NO": 999, "REV_AT_EPOCH": 485, "BSTAR": -0.00059665, "MEAN_MOTION_DOT": -0.00033487, "MEAN_MOTION_DDOT": 0}, "tle": {"line1": "1 66397U 25257T   25336.50006943 -.00033487  00000+0 -59665-3 0  9998", "line2": "2 66397  53.1582 312.7553 0001273  80.4376 247.8398 15.49306597  4851"}}, "geometry": {"type": "Point", "coordinates": [-101.72511830834337, -46.795072811549396]}}, {"type": "Feature", "properties": {"norad_id": 66398, "name": "STARLINK-35642", "group": "last-30-days", "lat": -45.84715338850738, "lon": -99.32140278429799, "alt_km": 424.20824261285634, "timestamp": "2025-12-02T19:35:49.342170+00:00", "meta": {"OBJECT_NAME": "STARLINK-35642", "OBJECT_ID": "2025-257U", "EPOCH": "2025-12-02T12:00:05.998752", "MEAN_MOTION": 15.49304382, "ECCENTRICITY": 0.0001318, "INCLINATION": 53.1583, "RA_OF_ASC_NODE": 312.7507, "ARG_OF_PERICENTER": 85.9297, "MEAN_ANOMALY": 244.2663, "EPHEMERIS_TYPE": 0, "CLASSIFICATION_TYPE": "U", "NORAD_CAT_ID": 66398, "ELEMENT_SET_NO": 999, "REV_AT_EPOCH": 485, "BSTAR": -0.00055193, "MEAN_MOTION_DOT": -0.00031018, "MEAN_MOTION_DDOT": 0}, "tle": {"line1": "1 66398U 25257U   25336.50006943 -.00031018  00000+0 -55193-3 0  9999", "line2": "2 66398  53.1583 312.7507 0001318  85.9297 244.2663 15.49304382  4850"}}, "geometry": {"type": "Point", "coordinates": [-99.32140278429799, -45.84715338850738]}}, {"type": "Feature", "properties": {"norad_id": 66399, "name": "STARLINK-35657", "group": "last-30-days", "lat": -44.85034454435031, "lon": -96.99982100690406, "alt_km": 424.20908923726074, "timestamp": "2025-12-02T19:35:49.342180+00:00", "meta": {"OBJECT_NAME": "STARLINK-35657", "OBJECT_ID": "2025-257V", "EPOCH": "2025-12-02T12:00:05.998752", "MEAN_MOTION": 15.49303234, "ECCENTRICITY": 0.0001381, "INCLINATION": 53.1583, "RA_OF_ASC_NODE": 312.7469, "ARG_OF_PERICENTER": 87.7962, "MEAN_ANOMALY": 244.318, "EPHEMERIS_TYPE": 0, "CLASSIFICATION_TYPE": "U", "NORAD_CAT_ID": 66399, "ELEMENT_SET_NO": 999, "REV_AT_EPOCH": 485, "BSTAR": -0.00051258, "MEAN_MOTION_DOT": -0.00028845, "MEAN_MOTION_DDOT": 0}, "tle": {"line1": "1 66399U 25257V   25336.50006943 -.00028845  00000+0 -51258-3 0  9992", "line2": "2 66399  53.1583 312.7469 0001381  87.7962 244.3180 15.49303234  4857"}}, "geometry": {"type": "Point", "coordinates": [-96.99982100690406, -44.85034454435031]}}, {"type": "Feature", "properties": {"norad_id": 66400, "name": "STARLINK-35667", "group": "last-30-days", "lat": -42.60561726711845, "lon": -92.37270841801605, "alt_km": 423.7101382922656, "timestamp": "2025-12-02T19:35:49.342190+00:00", "meta": {"OBJECT_NAME": "STARLINK-35667", "OBJECT_ID": "2025-257W", "EPOCH": "2025-12-02T12:00:05.998752", "MEAN_MOTION": 15.49413249, "ECCENTRICITY": 0.0001621, "INCLINATION": 53.1582, "RA_OF_ASC_NODE": 312.7385, "ARG_OF_PERICENTER": 88.3911, "MEAN_ANOMALY": 247.6, "EPHEMERIS_TYPE": 0, "CLASSIFICATION_TYPE": "U", "NORAD_CAT_ID": 66400, "ELEMENT_SET_NO": 999, "REV_AT_EPOCH": 485, "BSTAR": 0.0013648, "MEAN_MOTION_DOT": 0.00076485, "MEAN_MOTION_DDOT": 0}, "tle": {"line1": "1 66400U 25257W   25336.50006943  .00076485  00000+0  13648-2 0  9996", "line2": "2 66400  53.1582 312.7385 0001621  88.3911 247.6000 15.49413249  4859"}}, "geometry": {"type": "Point", "coordinates": [-92.37270841801605, -42.60561726711845]}}, {"type": "Feature", "properties": {"norad_id": 66401, "name": "STARLINK-35668", "group": "last-30-days", "lat": -41.591258706869105, "lon": -90.4973169677402, "alt_km": 423.9360761193366, "timestamp": "2025-12-02T19:35:49.342200+00:00", "meta": {"OBJECT_NAME": "STARLINK-35668", "OBJECT_ID": "2025-257X", "EPOCH": "2025-12-02T12:00:05.998752", "MEAN_MOTION": 15.49294846, "ECCENTRICITY": 0.0001214, "INCLINATION": 53.1583, "RA_OF_ASC_NODE": 312.7347, "ARG_OF_PERICENTER": 84.5401, "MEAN_ANOMALY": 253.3492, "EPHEMERIS_TYPE": 0, "CLASSIFICATION_TYPE": "U", "NORAD_CAT_ID": 66401, "ELEMENT_SET_NO": 999, "REV_AT_EPOCH": 485, "BSTAR": -0.00051635, "MEAN_MOTION_DOT": -0.00029045, "MEAN_MOTION_DDOT": 0}, "tle": {"line1": "1 66401U 25257X   25336.50006943 -.00029045  00000+0 -51635-3 0  9998", "line2": "2 66401  53.1583 312.7347 0001214  84.5401 253.3492 15.49294846  4858"}}, "geometry": {"type": "Point", "coordinates": [-90.4973169677402, -41.591258706869105]}}, {"type": "Feature", "properties": {"norad_id": 66402, "name": "STARLINK-35644", "group": "last-30-days", "lat": -43.80886562939948, "lon": -94.76168745357921, "alt_km": 424.11858416707764, "timestamp": "2025-12-02T19:35:49.342212+00:00", "meta": {"OBJECT_NAME": "STARLINK-35644", "OBJECT_ID": "2025-257Y", "EPOCH": "2025-12-02T12:00:05.998752", "MEAN_MOTION": 15.49305033, "ECCENTRICITY": 0.000134, "INCLINATION": 53.1582, "RA_OF_ASC_NODE": 312.7426, "ARG_OF_PERICENTER": 86.3336, "MEAN_ANOMALY": 247.6956, "EPHEMERIS_TYPE": 0, "CLASSIFICATION_TYPE": "U", "NORAD_CAT_ID": 66402, "ELEMENT_SET_NO": 999, "REV_AT_EPOCH": 485, "BSTAR": -0.0005627, "MEAN_MOTION_DOT": -0.00031613, "MEAN_MOTION_DDOT": 0}, "tle": {"line1": "1 66402U 25257Y   25336.50006943 -.00031613  00000+0 -56270-3 0  9993", "line2": "2 66402  53.1582 312.7426 0001340  86.3336 247.6956 15.49305033  4855"}}, "geometry": {"type": "Point", "coordinates": [-94.76168745357921, -43.80886562939948]}}]}